STARLINK-5226           
1 54056U 22136F   22307.91667824  .00026000  00000+0  18900-3 0  9999
2 54056  53.2145  77.1127 0001599  31.2765 241.8538 15.73211570  2763
STARLINK-5216           
1 54057U 22136G   22307.91667824 -.00032082  00000+0 -22433-3 0  9995
2 54057  53.2149  77.1113 0001793  28.5133 245.2716 15.73270867  2767
STARLINK-5167           
1 54058U 22136H   22307.91667824  .00000832  00000+0  10336-4 0  9992
2 54058  53.2143  77.1067 0001778  36.7592 238.2922 15.73242088  2768
STARLINK-5173           
1 54059U 22136J   22307.91667824 -.00039745  00000+0 -27905-3 0  9999
2 54059  53.2151  77.1104 0001976  24.3958 249.9847 15.73284785  2764
STARLINK-5169           
1 54060U 22136K   22307.58334491 -.01053397  00000+0 -67000-2 0  9994
2 54060  53.2173  77.9955 0001111  87.4012 106.6634 15.78149153  1300
STARLINK-5209           
1 54061U 22136L   22307.91667824 -.00804725  00000+0 -34868-2 0  9995
2 54061  53.2169  76.5844 0012160  84.4463  88.8374 15.85869235  2762
STARLINK-5170           
1 54062U 22136M   22307.58334491 -.00041107  00000+0 -28911-3 0  9990
2 54062  53.2154  78.7551 0002297  23.5493 163.6662 15.73259303  1300
STARLINK-5225           
1 54063U 22136N   22307.58334491 -.00041630  00000+0 -29274-3 0  9995
2 54063  53.2151  78.7535 0001800  38.4846 149.3002 15.73271424  1303
STARLINK-5172           
1 54064U 22136P   22307.91667824 -.00035516  00000+0 -24859-3 0  9992
2 54064  53.2140  77.0492 0002213  21.4088 279.7665 15.73299543  2761
STARLINK-5187           
1 54065U 22136Q   22307.91667824 -.00054449  00000+0 -38435-3 0  9994
2 54065  53.2149  77.1022 0001664  28.1434 249.8299 15.73300865  2760
STARLINK-5151           
1 54066U 22136R   22307.91667824 -.00014494  00000+0 -97958-4 0  9997
2 54066  53.2148  77.1048 0001826  57.2743 219.5181 15.73447223  2768
STARLINK-5174           
1 54067U 22136S   22307.91667824  .00003233  00000+0  27421-4 0  9993
2 54067  53.2152  77.1014 0002123  27.0161 252.0614 15.73227847  2768
STARLINK-5222           
1 54068U 22136T   22307.91667824 -.00046221  00000+0 -32575-3 0  9995
2 54068  53.2146  77.1003 0000985  80.7370 197.9161 15.73269894  2764
STARLINK-5223           
1 54069U 22136U   22307.91667824 -.00049684  00000+0 -35001-3 0  9999
2 54069  53.2148  77.0952 0001728  34.2379 247.3024 15.73308577  2768
STARLINK-5181           
1 54070U 22136V   22307.58334491 -.00020724  00000+0 -14320-3 0  9990
2 54070  53.2159  78.7486 0001645  36.0893 154.6883 15.73263957  1305
STARLINK-5168           
1 54071U 22136W   22307.58334491 -.00024840  00000+0 -17254-3 0  9993
2 54071  53.2153  78.7453 0001799  42.4461 149.5115 15.73271091  1305
STARLINK-5144           
1 54072U 22136X   22307.91667824  .00014287  00000+0  10575-3 0  9991
2 54072  53.2152  77.0984 0001822  34.4510 245.9193 15.73264643  2762
STARLINK-5146           
1 54073U 22136Y   22307.91667824 -.00050327  00000+0 -35476-3 0  9996
2 54073  53.2150  77.0918 0001886  29.1443 254.1986 15.73298943  2766
STARLINK-5192           
1 54074U 22136Z   22307.58334491 -.00084430  00000+0 -60072-3 0  9993
2 54074  53.2158  78.7446 0001570  35.4802 157.6559 15.73294970  1306
STARLINK-5212           
1 54075U 22136AA  22307.58334491 -.00054641  00000+0 -38626-3 0  9995
2 54075  53.2160  78.7409 0001742  37.4316 157.5264 15.73269015  1306
STARLINK-5201           
1 54076U 22136AB  22307.91667824 -.00063264  00000+0 -44947-3 0  9996
2 54076  53.2153  77.0945 0001846  24.1468 258.3157 15.73211644  2769
STARLINK-5171           
1 54077U 22136AC  22307.58334491  .00020555  00000+0  15074-3 0  9994
2 54077  53.2157  78.7365 0001974  37.3552 159.5821 15.73163783  1309
STARLINK-5138           
1 54078U 22136AD  22307.91667824 -.00067918  00000+0 -48173-3 0  9993
2 54078  53.2155  77.0901 0002030 348.3300 296.8156 15.73278363  2764
STARLINK-5175           
1 54079U 22136AE  22307.58334491 -.00018416  00000+0 -12673-3 0  9993
2 54079  53.2160  78.7360 0001844  36.5653 160.7887 15.73262134  1305
STARLINK-5160           
1 54080U 22136AF  22307.58334491 -.00022460  00000+0 -15558-3 0  9994
2 54080  53.2159  78.7394 0001505  40.4351 155.1042 15.73266887  1305
STARLINK-5165           
1 54081U 22136AG  22307.58334491 -.00081502  00000+0 -57940-3 0  9998
2 54081  53.2155  78.7320 0001567  35.8344 162.7104 15.73300175  1301
STARLINK-5210           
1 54082U 22136AH  22307.58334491 -.00098783  00000+0 -70418-3 0  9993
2 54082  53.2159  78.7346 0001734  38.5380 159.4146 15.73314529  1307
STARLINK-5178           
1 54083U 22136AJ  22307.91667824 -.00035476  00000+0 -24873-3 0  9994
2 54083  53.2153  77.0790 0001793  31.6670 258.2764 15.73261794  2768
STARLINK-5183           
1 54084U 22136AK  22307.91667824 -.00013568  00000+0 -92089-4 0  9998
2 54084  53.2152  77.0824 0002006  25.5839 262.5513 15.73275842  2762
STARLINK-5166           
1 54085U 22136AL  22307.91667824 -.00038946  00000+0 -27353-3 0  9997
2 54085  53.2152  77.0775 0001671  31.0591 259.4923 15.73268865  2747
STARLINK-5211           
1 54086U 22136AM  22307.91667824 -.00037292  00000+0 -26146-3 0  9990
2 54086  53.2154  77.0816 0002199  14.6554 274.0495 15.73285635  2749
STARLINK-5184           
1 54087U 22136AN  22307.91667824 -.00037850  00000+0 -26559-3 0  9999
2 54087  53.2155  77.0770 0002263  22.3219 268.8049 15.73273172  2745
STARLINK-5153           
1 54088U 22136AP  22307.91667824 -.00050636  00000+0 -35734-3 0  9992
2 54088  53.2154  77.0801 0001907  28.3035 261.0348 15.73275389  2745
STARLINK-5143           
1 54089U 22136AQ  22307.91667824 -.00004186  00000+0 -25377-4 0  9995
2 54089  53.2151  77.0739 0001689  36.0280 256.9387 15.73233160  2745
STARLINK-5177           
1 54090U 22136AR  22307.58334491 -.00016701  00000+0 -11441-3 0  9993
2 54090  53.2157  78.7230 0001750  36.8000 166.4740 15.73278707  1309
STARLINK-5221           
1 54091U 22136AS  22307.58334491 -.00083131  00000+0 -59004-3 0  9992
2 54091  53.2164  78.7206 0001698  41.1903 164.5516 15.73344618  1308
STARLINK-5190           
1 54092U 22136AT  22307.83335648  .00026088  00000+0  18933-3 0  9998
2 54092  53.2161  77.4894 0001754  34.2943 145.2496 15.73247536  2737
STARLINK-5213           
1 54093U 22136AU  22307.91667824  .00007001  00000+0  54153-4 0  9991
2 54093  53.2154  77.0683 0001701  35.0910 260.1936 15.73248090  2740
STARLINK-5219           
1 54094U 22136AV  22307.91667824 -.00002530  00000+0 -13559-4 0  9991
2 54094  53.2160  77.0737 0001682  32.7721 260.6879 15.73272082  2749
STARLINK-5193           
1 54095U 22136AW  22307.91667824  .00030524  00000+0  22085-3 0  9997
2 54095  53.2156  77.0668 0001693  31.4290 265.0957 15.73227786  2744
STARLINK-5188           
1 54096U 22136AX  22307.91667824 -.00040774  00000+0 -28657-3 0  9999
2 54096  53.2155  77.0707 0001755  28.5695 265.5365 15.73273843  2746
STARLINK-5197           
1 54097U 22136AY  22307.91667824 -.00028002  00000+0 -19481-3 0  9995
2 54097  53.2149  77.0235 0001592  31.5979 284.4706 15.73311678  2742
STARLINK-5217           
1 54098U 22136AZ  22307.91667824 -.00026366  00000+0 -18356-3 0  9997
2 54098  53.2159  77.0666 0001727  33.0034 264.0849 15.73257232  2748
STARLINK-5198           
1 54099U 22136BA  22307.91667824 -.00049788  00000+0 -35106-3 0  9993
2 54099  53.2157  77.0616 0001669  31.2554 267.5843 15.73288666  2741
STARLINK-5185           
1 54100U 22136BB  22307.91667824 -.00012660  00000+0 -85684-4 0  9992
2 54100  53.2156  77.0675 0001711  29.9528 265.9360 15.73260023  2744
STARLINK-5204           
1 54101U 22136BC  22307.91667824 -.00005630  00000+0 -35608-4 0  9993
2 54101  53.2162  77.0618 0002044  23.9423 275.5638 15.73262833  2743
STARLINK-5179           
1 54102U 22136BD  22307.91667824 -.00032566  00000+0 -22772-3 0  9999
2 54102  53.2153  77.0618 0001688  30.4282 267.8128 15.73279053  2743
STARLINK-5200           
1 54103U 22136BE  22307.58334491 -.00043930  00000+0 -30937-3 0  9993
2 54103  53.2154  78.7066 0001581  39.6469 171.4134 15.73262444  1304
STARLINK-5203           
1 54104U 22136BF  22307.91667824 -.00039097  00000+0 -27450-3 0  9995
2 54104  53.2158  77.0579 0001734  29.7875 270.8444 15.73278172  2743
FALCON 9 DEB            
1 54105U 22136BG  22307.48717402  .03648643  12024-4  89475-3 0  9999
2 54105  53.2151  77.0063 0028509  86.7319 273.6985 16.27220501  2249
FALCON 9 DEB            
1 54106U 22136BH  22307.48375208  .03289725  12006-4  86168-3 0  9992
2 54106  53.2071  76.9719 0026977  87.9533 272.4599 16.26650547  2249
FALCON 9 DEB            
1 54107U 22136BJ  22307.59448471  .03152218  12096-4  63820-3 0  9993
2 54107  53.2146  76.2266 0023380  78.7156 281.6515 16.29645652  2263
FALCON 9 DEB            
1 54108U 22136BK  22307.77247510  .06881026  12308-4  68040-3 0  9999
2 54108  53.2130  75.1958 0015722  77.9303 282.3505 16.36935587  2296
COSMOS 2561             
1 54109U 22137A   22307.63646046  .00020084  00000+0  34465-3 0  9991
2 54109  97.0762  27.4994 0008092 213.6843 146.3897 15.51167648  1983
COSMOS 2562             
1 54110U 22137B   22307.62843828  .00026541  00000+0  42448-3 0  9993
2 54110  97.0762  27.5100 0012117 235.1018 124.9098 15.53040711  1989
SL-4 R/B                
1 54111U 22137C   22307.51174225  .13438001  23654-5  10000-3 0  9997
2 54111  97.0490  28.5073 0014578  33.3706  97.9608 16.52419420  2044
ONEWEB-0490             
1 54113U 22138A   22307.91667824 -.00043952  00000+0 -45204-2 0  9998
2 54113  87.4302 212.9886 0011490 243.9831 193.6227 14.90628522  2675
ONEWEB-0492             
1 54114U 22138B   22307.91667824 -.00043546  00000+0 -45155-2 0  9993
2 54114  87.4309 212.9910 0012880 246.7182 175.7227 14.90284326  2676
ONEWEB-0495             
1 54115U 22138C   22307.91667824 -.00043283  00000+0 -45987-2 0  9995
2 54115  87.4318 213.0002 0013163 265.6358 114.3775 14.89300250  2671
